NORAD_CAT_ID,OBJECT_NAME,OBJECT_TYPE,EPOCH,MEAN_MOTION,ECCENTRICITY,INCLINATION,RA_OF_ASC_NODE,ARG_OF_PERICENTER,MEAN_ANOMALY,BSTAR,MEAN_MOTION_DOT,MEAN_MOTION_DDOT,TLE_LINE0,TLE_LINE1,TLE_LINE2,SEMIMAJOR_AXIS,PERIOD,APOGEE,PERIGEE,DECAYED
56776.0,STARLINK-6274,PAYLOAD,2024-01-12 19:41:58,14.98324666,0.0002722,70.0006,148.6161,266.6217,93.4631,-0.0001178,-1.498e-05,0.0,0 STARLINK-6274,1 56776U 23078K   24012.82081176 -.00001498  00000-0 -11780-3 0  9997,2 56776  70.0006 148.6161 0002722 266.6217  93.4631 14.98324666 35560,6950.209,96.107,573.966,570.183,0.0
56776.0,STARLINK-6274,PAYLOAD,2024-01-13 13:19:26,14.98327289,0.0002825,70.0001,146.7644,259.9846,100.0994,-2.5656e-06,-1.24e-06,0.0,0 STARLINK-6274,1 56776U 23078K   24013.55516728 -.00000124  00000-0 -25656-5 0  9998,2 56776  70.0001 146.7644 0002825 259.9846 100.0994 14.98327289 35412,6950.201,96.107,574.03,570.103,0.0
56776.0,STARLINK-6274,PAYLOAD,2024-01-13 19:43:58,14.98333551,0.0003042,69.9997,146.0907,269.2151,90.866,2.957e-05,2.6e-06,0.0,0 STARLINK-6274,1 56776U 23078K   24013.82220269  .00000260  00000-0  29570-4 0  9997,2 56776  69.9997 146.0907 0003042 269.2151  90.8660 14.98333551 35711,6950.182,96.107,574.161,569.933,0.0
56776.0,STARLINK-6274,PAYLOAD,2024-01-14 13:21:26,14.98330472,0.000299,69.9999,144.2389,266.9878,93.0939,0.00010207,1.125e-05,0.0,0 STARLINK-6274,1 56776U 23078K   24014.55656240  .00001125  00000-0  10207-3 0  9997,2 56776  69.9999 144.2389 0002990 266.9878  93.0939 14.98330472 35564,6950.191,96.107,574.135,569.978,0.0
56776.0,STARLINK-6274,PAYLOAD,2024-01-14 18:09:50,14.98336092,0.0002685,70.0002,143.7341,261.8289,98.2565,0.00018619,2.13e-05,0.0,0 STARLINK-6274,1 56776U 23078K   24014.75683618  .00002130  00000-0  18619-3 0  9990,2 56776  70.0002 143.7341 0002685 261.8289  98.2565 14.98336092 35594,6950.174,96.107,573.905,570.173,0.0
56776.0,STARLINK-6274,PAYLOAD,2024-01-15 11:47:20,14.98328992,0.0002627,70.0012,141.8863,258.8172,101.2692,-1.1161e-05,-2.26e-06,0.0,0 STARLINK-6274,1 56776U 23078K   24015.49120451 -.00000226  00000-0 -11161-4 0  9995,2 56776  70.0012 141.8863 0002627 258.8172 101.2692 14.98328992 35963,6950.196,96.107,573.887,570.235,0.0
56776.0,STARLINK-6274,PAYLOAD,2024-01-15 13:23:28,14.98328437,0.0002674,70.001,141.7178,259.008,101.0778,-2.1089e-05,-3.45e-06,0.0,0 STARLINK-6274,1 56776U 23078K   24015.55796503 -.00000345  00000-0 -21089-4 0  9991,2 56776  70.0010 141.7178 0002674 259.0080 101.0778 14.98328437 35712,6950.198,96.107,573.921,570.204,0.0
56776.0,STARLINK-6274,PAYLOAD,2024-01-15 18:11:52,14.98329399,0.000267,70.0009,141.2126,259.3394,100.7464,-1.7349e-05,-3e-06,0.0,0 STARLINK-6274,1 56776U 23078K   24015.75824421 -.00000300  00000-0 -17349-4 0  9999,2 56776  70.0009 141.2126 0002670 259.3394 100.7464 14.98329399 35744,6950.195,96.107,573.915,570.204,0.0
56776.0,STARLINK-6274,PAYLOAD,2024-01-16 11:49:21,14.98324292,0.0002487,70.0015,139.3619,256.4667,103.6215,-0.00013644,-1.72e-05,0.0,0 STARLINK-6274,1 56776U 23078K   24016.49261236 -.00001720  00000-0 -13644-3 0  9990,2 56776  70.0015 139.3619 0002487 256.4667 103.6215 14.98324292 36118,6950.211,96.107,573.804,570.347,0.0
56776.0,STARLINK-6274,PAYLOAD,2024-01-16 13:25:30,14.98320648,0.0002698,70.0004,139.1888,272.6978,87.3872,-0.00015454,-1.936e-05,0.0,0 STARLINK-6274,1 56776U 23078K   24016.55937586 -.00001936  00000-0 -15454-3 0  9995,2 56776  70.0004 139.1888 0002698 272.6978  87.3872 14.98320648 35860,6950.222,96.108,573.962,570.212,0.0
56776.0,STARLINK-6274,PAYLOAD,2024-01-16 21:26:09,14.9833736,0.0003156,69.9996,138.3484,271.6018,88.478,-6.6448e-05,-8.86e-06,0.0,0 STARLINK-6274,1 56776U 23078K   24016.89316192 -.00000886  00000-0 -66448-4 0  9999,2 56776  69.9996 138.3484 0003156 271.6018  88.4780 14.98337360 35919,6950.17,96.107,574.229,569.842,0.0
56776.0,STARLINK-6274,PAYLOAD,2024-01-17 11:51:22,14.98319979,0.0002598,70.0002,136.8314,266.357,93.7292,3.2563e-05,2.96e-06,0.0,0 STARLINK-6274,1 56776U 23078K   24017.49401213  .00000296  00000-0  32563-4 0  9999,2 56776  70.0002 136.8314 0002598 266.3570  93.7292 14.98319979 36260,6950.224,96.108,573.895,570.283,0.0
56776.0,STARLINK-6274,PAYLOAD,2024-01-17 15:03:38,14.98323726,0.0002544,70.0005,136.497,275.8737,84.2132,1.8497e-05,1.28e-06,0.0,0 STARLINK-6274,1 56776U 23078K   24017.62753136  .00000128  00000-0  18497-4 0  9992,2 56776  70.0005 136.4970 0002544 275.8737  84.2132 14.98323726 36025,6950.212,96.107,573.845,570.309,0.0
56776.0,STARLINK-6274,PAYLOAD,2024-01-17 18:15:54,14.9832692,0.0002492,70.0006,136.1598,274.2733,85.8141,9.7419e-05,1.07e-05,0.0,0 STARLINK-6274,1 56776U 23078K   24017.76104798  .00001070  00000-0  97419-4 0  9999,2 56776  70.0006 136.1598 0002492 274.2733  85.8141 14.98326920 36307,6950.202,96.107,573.799,570.335,0.0
56776.0,STARLINK-6274,PAYLOAD,2024-01-18 13:29:31,14.98322377,0.0002705,70.0009,134.1417,272.789,87.296,4.3321e-05,4.24e-06,0.0,0 STARLINK-6274,1 56776U 23078K   24018.56217389  .00000424  00000-0  43321-4 0  9994,2 56776  70.0009 134.1417 0002705 272.7890  87.2960 14.98322377 36163,6950.216,96.107,573.961,570.201,0.0
56776.0,STARLINK-6274,PAYLOAD,2024-01-18 16:41:47,14.98323118,0.0002877,70.0011,133.8055,278.4749,81.6084,6.0471e-05,6.28e-06,0.0,0 STARLINK-6274,1 56776U 23078K   24018.69569368  .00000628  00000-0  60471-4 0  9996,2 56776  70.0011 133.8055 0002877 278.4749  81.6084 14.98323118 36446,6950.214,96.107,574.079,570.08,0.0
56776.0,STARLINK-6274,PAYLOAD,2024-01-19 13:31:32,14.98328964,0.0002882,70.0005,131.6169,257.9881,102.0955,-1.1657e-05,-2.32e-06,0.0,0 STARLINK-6274,1 56776U 23078K   24019.56357120 -.00000232  00000-0 -11657-4 0  9999,2 56776  70.0005 131.6169 0002882 257.9881 102.0955 14.98328964 36311,6950.196,96.107,574.064,570.058,0.0
56776.0,STARLINK-6274,PAYLOAD,2024-01-19 16:43:48,14.98336694,0.0002983,70.0002,131.2798,262.8165,97.2654,6.2456e-05,6.52e-06,0.0,0 STARLINK-6274,1 56776U 23078K   24019.69708385  .00000652  00000-0  62456-4 0  9993,2 56776  70.0002 131.2798 0002983 262.8165  97.2654 14.98336694 36594,6950.172,96.107,574.11,569.964,0.0
56776.0,STARLINK-6274,PAYLOAD,2024-01-20 11:57:27,14.98311962,0.0003098,70.001,129.261,263.8871,96.1935,-0.00014741,-1.851e-05,0.0,0 STARLINK-6274,1 56776U 23078K   24020.49823057 -.00001851  00000-0 -14741-3 0  9994,2 56776  70.0010 129.2610 0003098 263.8871  96.1935 14.98311962 36711,6950.249,96.108,574.267,569.96,0.0
56776.0,STARLINK-6274,PAYLOAD,2024-01-20 13:33:35,14.98312942,0.0002972,70.0012,129.0928,260.0861,99.9962,-0.00013302,-1.679e-05,0.0,0 STARLINK-6274,1 56776U 23078K   24020.56499006 -.00001679  00000-0 -13302-3 0  9995,2 56776  70.0012 129.0928 0002972 260.0861  99.9962 14.98312942 36463,6950.246,96.108,574.176,570.045,0.0
56776.0,STARLINK-6274,PAYLOAD,2024-01-20 16:45:50,14.98318631,0.0003336,70.0001,128.7553,270.1968,89.8809,-5.5664e-05,-7.57e-06,0.0,0 STARLINK-6274,1 56776U 23078K   24020.69850582 -.00000757  00000-0 -55664-4 0  9993,2 56776  70.0001 128.7553 0003336 270.1968  89.8809 14.98318631 36746,6950.228,96.108,574.412,569.774,0.0
56776.0,STARLINK-6274,PAYLOAD,2024-01-21 07:11:02,14.98334315,0.0003827,69.9989,127.2402,271.5667,88.5053,6.3751e-05,6.68e-06,0.0,0 STARLINK-6274,1 56776U 23078K   24021.29933368  .00000668  00000-0  63751-4 0  9999,2 56776  69.9989 127.2402 0003827 271.5667  88.5053 14.98334315 36576,6950.18,96.107,574.704,569.385,0.0
56776.0,STARLINK-6274,PAYLOAD,2024-01-21 11:59:26,14.98335995,0.0003688,69.9995,126.7344,271.9143,88.1593,7.7456e-05,8.31e-06,0.0,0 STARLINK-6274,1 56776U 23078K   24021.49961037  .00000831  00000-0  77456-4 0  9994,2 56776  69.9995 126.7344 0003688 271.9143  88.1593 14.98335995 36862,6950.174,96.107,574.603,569.476,0.0
56776.0,STARLINK-6274,PAYLOAD,2024-01-21 16:47:50,14.98339581,0.0003586,69.9995,126.2297,271.1366,88.9382,9.0065e-05,9.82e-06,0.0,0 STARLINK-6274,1 56776U 23078K   24021.69988700  .00000982  00000-0  90065-4 0  9990,2 56776  69.9995 126.2297 0003586 271.1366  88.9382 14.98339581 36634,6950.163,96.106,574.521,569.536,0.0
56776.0,STARLINK-6274,PAYLOAD,2024-01-22 07:13:03,14.98330087,0.0003275,70.0004,124.7151,271.3236,88.7548,0.00016476,1.873e-05,0.0,0 STARLINK-6274,1 56776U 23078K   24022.30073116  .00001873  00000-0  16476-3 0  9998,2 56776  70.0004 124.7151 0003275 271.3236  88.7548 14.98330087 36727,6950.193,96.107,574.334,569.781,0.0
56776.0,STARLINK-6274,PAYLOAD,2024-01-22 12:01:27,14.98330433,0.0003332,70.0004,124.21,271.1878,88.89,0.00018408,2.104e-05,0.0,0 STARLINK-6274,1 56776U 23078K   24022.50101001  .00002104  00000-0  18408-3 0  9990,2 56776  70.0004 124.2100 0003332 271.1878  88.8900 14.98330433 37011,6950.192,96.107,574.372,569.741,0.0
56776.0,STARLINK-6274,PAYLOAD,2024-01-22 16:49:51,14.98336414,0.0003245,70.0005,123.7051,270.5896,89.4891,0.00022851,2.635e-05,0.0,0 STARLINK-6274,1 56776U 23078K   24022.70128512  .00002635  00000-0  22851-3 0  9994,2 56776  70.0005 123.7051 0003245 270.5896  89.4891 14.98336414 36781,6950.173,96.107,574.293,569.783,0.0
56776.0,STARLINK-6274,PAYLOAD,2024-01-23 07:15:03,14.9834372,0.0002856,70.0016,122.1913,263.3369,96.7465,-3.8068e-05,-5.47e-06,0.0,0 STARLINK-6274,1 56776U 23078K   24023.30212302 -.00000547  00000-0 -38068-4 0  9992,2 56776  70.0016 122.1913 0002856 263.3369  96.7465 14.98343720 36871,6950.15,96.106,574.0,570.031,0.0
56776.0,STARLINK-6274,PAYLOAD,2024-01-23 16:51:50,14.98405604,0.0002827,70.0011,121.1824,253.0081,107.0768,-0.0011575,-0.00013904,0.0,0 STARLINK-6274,1 56776U 23078K   24023.70266618 -.00013904  00000-0 -11575-2 0  9998,2 56776  70.0011 121.1824 0002827 253.0081 107.0768 14.98405604 36930,6949.959,96.102,573.789,569.859,0.0
56776.0,STARLINK-6274,PAYLOAD,2024-01-24 12:05:29,14.98323278,0.0003352,69.9997,119.1599,275.6031,84.4746,-0.00021552,-2.663e-05,0.0,0 STARLINK-6274,1 56776U 23078K   24024.50381762 -.00002663  00000-0 -21552-3 0  9992,2 56776  69.9997 119.1599 0003352 275.6031  84.4746 14.98323278 37318,6950.214,96.107,574.408,569.749,0.0
